NORAD_CAT_ID,OBJECT_NAME,OBJECT_TYPE,EPOCH,MEAN_MOTION,ECCENTRICITY,INCLINATION,RA_OF_ASC_NODE,ARG_OF_PERICENTER,MEAN_ANOMALY,BSTAR,MEAN_MOTION_DOT,MEAN_MOTION_DDOT,TLE_LINE0,TLE_LINE1,TLE_LINE2,SEMIMAJOR_AXIS,PERIOD,APOGEE,PERIGEE,DECAYED
53935.0,STARLINK-5000,PAYLOAD,2024-03-19 23:13:13,15.08850136,0.0001535,53.2166,279.9543,111.2269,248.8888,2.6752e-05,1.38e-06,0.0,0 STARLINK-5000,1 53935U 22119BB  24079.96752203  .00000138  00000-0  26752-4 0  9994,2 53935  53.2166 279.9543 0001535 111.2269 248.8888 15.08850136 83100,6917.849,95.437,540.776,538.653,0.0
53935.0,STARLINK-5000,PAYLOAD,2024-03-20 13:31:43,15.08829864,0.0001124,53.2163,277.2788,96.4269,263.6851,-3.195e-05,-7.96e-06,0.0,0 STARLINK-5000,1 53935U 22119BB  24080.56369795 -.00000796  00000-0 -31950-4 0  9990,2 53935  53.2163 277.2788 0001124  96.4269 263.6851 15.08829864 83612,6917.911,95.438,540.554,538.999,0.0
53935.0,STARLINK-5000,PAYLOAD,2024-03-20 19:53:15,15.0883242,0.0001238,53.2156,276.082,119.5752,240.5364,-8.6383e-06,-4.25e-06,0.0,0 STARLINK-5000,1 53935U 22119BB  24080.82865521 -.00000425  00000-0 -86383-5 0  9997,2 53935  53.2156 276.0820 0001238 119.5752 240.5364 15.08832420 83231,6917.904,95.438,540.625,538.912,0.0
53935.0,STARLINK-5000,PAYLOAD,2024-03-21 11:47:07,15.0883521,0.0001429,53.2166,273.1154,115.3293,244.7847,-4.813e-05,-1.054e-05,0.0,0 STARLINK-5000,1 53935U 22119BB  24081.49105939 -.00001054  00000-0 -48130-4 0  9997,2 53935  53.2166 273.1154 0001429 115.3293 244.7847 15.08835210 83755,6917.895,95.438,540.749,538.771,0.0
53935.0,STARLINK-5000,PAYLOAD,2024-03-21 19:44:02,15.08844389,0.0001322,53.2173,271.6321,108.2537,251.8599,3.9476e-05,3.4e-06,0.0,0 STARLINK-5000,1 53935U 22119BB  24081.82225157  .00000340  00000-0  39476-4 0  9997,2 53935  53.2173 271.6321 0001322 108.2537 251.8599 15.08844389 83385,6917.867,95.437,540.647,538.817,0.0
53935.0,STARLINK-5000,PAYLOAD,2024-03-22 13:13:17,15.08835519,0.0001273,53.2175,268.3618,106.7202,253.393,0.00013574,1.873e-05,0.0,0 STARLINK-5000,1 53935U 22119BB  24082.55089597  .00001873  00000-0  13574-3 0  9996,2 53935  53.2175 268.3618 0001273 106.7202 253.3930 15.08835519 83916,6917.894,95.438,540.64,538.878,0.0
53935.0,STARLINK-5000,PAYLOAD,2024-03-22 19:34:49,15.08839811,0.000123,53.2173,267.1725,98.9492,261.1639,0.0001689,2.401e-05,0.0,0 STARLINK-5000,1 53935U 22119BB  24082.81585412  .00002401  00000-0  16890-3 0  9994,2 53935  53.2173 267.1725 0001230  98.9492 261.1639 15.08839811 83536,6917.881,95.438,540.597,538.895,0.0
53935.0,STARLINK-5000,PAYLOAD,2024-03-23 19:25:37,15.08840205,0.0001263,53.2172,262.7126,68.4016,291.7111,6.2728e-05,7.11e-06,0.0,0 STARLINK-5000,1 53935U 22119BB  24083.80946027  .00000711  00000-0  62728-4 0  9991,2 53935  53.2172 262.7126 0001263  68.4016 291.7111 15.08840205 83680,6917.88,95.438,540.618,538.871,0.0
53935.0,STARLINK-5000,PAYLOAD,2024-03-24 04:57:55,15.08845272,0.0001348,53.2173,260.9264,79.038,281.0764,3.1102e-05,2.07e-06,0.0,0 STARLINK-5000,1 53935U 22119BB  24084.20689756  .00000207  00000-0  31102-4 0  9991,2 53935  53.2173 260.9264 0001348  79.0380 281.0764 15.08845272 84169,6917.864,95.437,540.662,538.797,0.0
53935.0,STARLINK-5000,PAYLOAD,2024-03-24 20:51:45,15.08866237,0.0001354,53.2173,257.9515,82.3648,277.7497,0.00025192,3.726e-05,0.0,0 STARLINK-5000,1 53935U 22119BB  24084.86928010  .00003726  00000-0  25192-3 0  9992,2 53935  53.2173 257.9515 0001354  82.3648 277.7497 15.08866237 83848,6917.8,95.436,540.602,538.729,0.0
53935.0,STARLINK-5000,PAYLOAD,2024-03-25 04:48:42,15.08844492,0.0001623,53.2184,256.4633,66.7638,293.3525,8.6388e-05,1.087e-05,0.0,0 STARLINK-5000,1 53935U 22119BB  24085.20049477  .00001087  00000-0  86388-4 0  9995,2 53935  53.2184 256.4633 0001623  66.7638 293.3525 15.08844492 83899,6917.867,95.437,540.854,538.609,0.0
53935.0,STARLINK-5000,PAYLOAD,2024-03-25 17:31:47,15.08846541,0.0001349,53.2158,254.0867,88.7781,271.3366,8.9037e-05,1.13e-05,0.0,0 STARLINK-5000,1 53935U 22119BB  24085.73041365  .00001130  00000-0  89037-4 0  9994,2 53935  53.2158 254.0867 0001349  88.7781 271.3366 15.08846541 84393,6917.86,95.437,540.659,538.792,0.0
53935.0,STARLINK-5000,PAYLOAD,2024-03-26 04:39:30,15.08838539,0.0001495,53.2168,252.0034,97.1812,262.935,3.2167e-05,2.24e-06,0.0,0 STARLINK-5000,1 53935U 22119BB  24086.19409974  .00000224  00000-0  32167-4 0  9994,2 53935  53.2168 252.0034 0001495  97.1812 262.9350 15.08838539 84048,6917.885,95.438,540.784,538.716,0.0
53935.0,STARLINK-5000,PAYLOAD,2024-03-26 14:11:49,15.08832179,0.0001551,53.2167,250.2195,103.3113,256.8052,-4.8002e-05,-1.052e-05,0.0,0 STARLINK-5000,1 53935U 22119BB  24086.59154705 -.00001052  00000-0 -48002-4 0  9994,2 53935  53.2167 250.2195 0001551 103.3113 256.8052 15.08832179 84520,6917.904,95.438,540.842,538.696,0.0
53935.0,STARLINK-5000,PAYLOAD,2024-03-26 17:22:36,15.08830931,0.0001434,53.2169,249.6256,98.3358,261.7797,-3.6257e-05,-8.65e-06,0.0,0 STARLINK-5000,1 53935U 22119BB  24086.72402829 -.00000865  00000-0 -36257-4 0  9992,2 53935  53.2169 249.6256 0001434  98.3358 261.7797 15.08830931 84127,6917.908,95.438,540.765,538.781,0.0
53935.0,STARLINK-5000,PAYLOAD,2024-03-27 14:02:36,15.08834972,0.0001641,53.2169,245.7612,98.239,261.8789,5.2798e-05,5.52e-06,0.0,0 STARLINK-5000,1 53935U 22119BB  24087.58514665  .00000552  00000-0  52798-4 0  9998,2 53935  53.2169 245.7612 0001641  98.2390 261.8789 15.08834972 84676,6917.896,95.438,540.896,538.626,0.0
53935.0,STARLINK-5000,PAYLOAD,2024-03-27 20:24:08,15.08845482,0.0001377,53.2168,244.5693,95.4938,264.6211,9.4921e-05,1.223e-05,0.0,0 STARLINK-5000,1 53935U 22119BB  24087.85010003  .00001223  00000-0  94921-4 0  9995,2 53935  53.2168 244.5693 0001377  95.4938 264.6211 15.08845482 84291,6917.864,95.437,540.681,538.776,0.0
53935.0,STARLINK-5000,PAYLOAD,2024-03-28 10:42:37,15.08832545,0.0001369,53.2165,241.893,103.1017,257.0128,0.00021908,3.2e-05,0.0,0 STARLINK-5000,1 53935U 22119BB  24088.44626830  .00003200  00000-0  21908-3 0  9993,2 53935  53.2165 241.8930 0001369 103.1017 257.0128 15.08832545 84387,6917.903,95.438,540.715,538.821,0.0
53935.0,STARLINK-5000,PAYLOAD,2024-03-28 17:04:09,15.08836745,0.0001502,53.2171,240.7059,96.4669,263.6494,0.00022909,3.36e-05,0.0,0 STARLINK-5000,1 53935U 22119BB  24088.71122667  .00003360  00000-0  22909-3 0  9991,2 53935  53.2171 240.7059 0001502  96.4669 263.6494 15.08836745 84846,6917.89,95.438,540.794,538.716,0.0
53935.0,STARLINK-5000,PAYLOAD,2024-03-29 10:33:24,15.08839553,0.0001273,53.2175,237.4348,84.6774,275.4363,2.4434e-05,1.01e-06,0.0,0 STARLINK-5000,1 53935U 22119BB  24089.43987264  .00000101  00000-0  24434-4 0  9999,2 53935  53.2175 237.4348 0001273  84.6774 275.4363 15.08839553 84953,6917.882,95.438,540.627,538.866,0.0
53935.0,STARLINK-5000,PAYLOAD,2024-03-29 16:54:57,15.08845935,0.0001273,53.2178,236.246,85.5905,274.5232,8.3731e-05,1.045e-05,0.0,0 STARLINK-5000,1 53935U 22119BB  24089.70482682  .00001045  00000-0  83731-4 0  9996,2 53935  53.2178 236.2460 0001273  85.5905 274.5232 15.08845935 84578,6917.862,95.437,540.608,538.847,0.0
53935.0,STARLINK-5000,PAYLOAD,2024-03-30 08:48:48,15.08840139,0.0001444,53.2188,233.2748,87.2653,272.8505,0.00010884,1.445e-05,0.0,0 STARLINK-5000,1 53935U 22119BB  24090.36722952  .00001445  00000-0  10884-3 0  9999,2 53935  53.2188 233.2748 0001444  87.2653 272.8505 15.08840139 84670,6917.88,95.438,540.744,538.746,0.0
53935.0,STARLINK-5000,PAYLOAD,2024-03-30 13:35:00,15.0876443,0.0002393,53.2194,232.3821,93.7106,266.416,0.0010967,0.00017173,0.0,0 STARLINK-5000,1 53935U 22119BB  24090.56597270  .00017173  00000-0  10967-2 0  9990,2 53935  53.2194 232.3821 0002393  93.7106 266.4160 15.08764430 85124,6918.111,95.442,541.632,538.321,0.0
53935.0,STARLINK-5000,PAYLOAD,2024-03-31 02:18:03,15.08839,0.0001754,53.2194,230.0025,88.837,271.2823,0.00011309,1.512e-05,0.0,0 STARLINK-5000,1 53935U 22119BB  24091.09587186  .00001512  00000-0  11309-3 0  9996,2 53935  53.2194 230.0025 0001754  88.8370 271.2823 15.08839000 84780,6917.883,95.438,540.962,538.535,0.0
53935.0,STARLINK-5000,PAYLOAD,2024-03-31 13:25:44,15.0884477,0.0001708,53.22,227.9212,89.3648,270.754,7.2837e-05,8.71e-06,0.0,0 STARLINK-5000,1 53935U 22119BB  24091.55954789  .00000871  00000-0  72837-4 0  9995,2 53935  53.2200 227.9212 0001708  89.3648 270.7540 15.08844770 85279,6917.866,95.437,540.912,538.549,0.0
53935.0,STARLINK-5000,PAYLOAD,2024-03-31 16:36:31,15.08846363,0.0001486,53.2178,227.3255,90.2577,269.8586,8.8676e-05,1.124e-05,0.0,0 STARLINK-5000,1 53935U 22119BB  24091.69202567  .00001124  00000-0  88676-4 0  9990,2 53935  53.2178 227.3255 0001486  90.2577 269.8586 15.08846363 85290,6917.861,95.437,540.754,538.698,0.0
53935.0,STARLINK-5000,PAYLOAD,2024-04-01 02:08:50,15.08839067,0.0001799,53.2195,225.5406,78.9291,281.1903,6.988e-05,8.24e-06,0.0,0 STARLINK-5000,1 53935U 22119BB  24092.08947156  .00000824  00000-0  69880-4 0  9996,2 53935  53.2195 225.5406 0001799  78.9291 281.1903 15.08839067 85350,6917.883,95.438,540.993,538.504,0.0
53935.0,STARLINK-5000,PAYLOAD,2024-04-01 18:02:41,15.08841464,0.0001503,53.2183,222.565,81.1427,278.9736,4.9679e-05,5.03e-06,0.0,0 STARLINK-5000,1 53935U 22119BB  24092.75187125  .00000503  00000-0  49679-4 0  9990,2 53935  53.2183 222.5650 0001503  81.1427 278.9736 15.08841464 85032,6917.876,95.437,540.781,538.701,0.0
53935.0,STARLINK-5000,PAYLOAD,2024-04-02 01:59:37,15.08830922,0.0001421,53.2194,221.0782,81.0893,279.026,0.00015849,2.235e-05,0.0,0 STARLINK-5000,1 53935U 22119BB  24093.08307397  .00002235  00000-0  15849-3 0  9997,2 53935  53.2194 221.0782 0001421  81.0893 279.0260 15.08830922 85085,6917.908,95.438,540.756,538.79,0.0
53935.0,STARLINK-5000,PAYLOAD,2024-04-02 14:42:42,15.08842444,0.0001443,53.2157,218.6999,81.6355,278.48,4.7974e-05,4.76e-06,0.0,0 STARLINK-5000,1 53935U 22119BB  24093.61299002  .00000476  00000-0  47974-4 0  9999,2 53935  53.2157 218.6999 0001443  81.6355 278.4800 15.08842444 85589,6917.873,95.437,540.736,538.74,0.0
